GLOBALSTAR M075         
1 37192U 10054E   25201.65087690 -.00000104  00000+0  12875-5 0  9996
2 37192  51.9953  79.6479 0000710  62.1880 323.8279 12.62266245680072
GLOBALSTAR M073         
1 37193U 10054F   25201.49604049 -.00000105  00000+0 -73203-5 0  9996
2 37193  52.0081 353.9625 0000918  89.6474 312.8853 12.62272522682041
GLOBALSTAR M083         
1 37739U 11033A   25201.58239273 -.00000093  00000+0  62739-4 0  9999
2 37739  51.9871 302.3900 0000467 116.6328 256.5787 12.62260116651439
GLOBALSTAR M088         
1 37740U 11033B   25201.31813634 -.00000082  00000+0  12069-3 0  9999
2 37740  52.0186 208.8139 0000107 186.1227 186.7718 12.62266846646581
GLOBALSTAR M091         
1 37741U 11033C   25201.27954558 -.00000084  00000+0  10777-3 0  9992
2 37741  51.9976 172.3848 0000315 332.2609 165.8929 12.62269408647364
GLOBALSTAR M085         
1 37742U 11033D   25201.51089372 -.00000104  00000+0 -30094-5 0  9993
2 37742  51.9862 122.6887 0000517  19.1716 151.4102 12.62269862647902
GLOBALSTAR M081         
1 37743U 11033E   25201.53772520 -.00000116  00000+0 -69612-4 0  9990
2 37743  51.9954 125.4171 0000663  30.6712 140.2206 12.62267037648058
GLOBALSTAR M089         
1 37744U 11033F   25201.41871303 -.00000104  00000+0 -23222-5 0  9992
2 37744  51.9934  80.0000 0000929  75.1212  95.8610 12.62265418648884
